{
  "links" : {
    "next" : "https://api.nasa.gov/neo/rest/v1/feed?start_date=2016-03-23&end_date=2016-03-23&detailed=true&api_key=t0TVs3DtDT2H8Oy2Zy8m2eVrNsAVKAexjcZXUckd",
    "prev" : "https://api.nasa.gov/neo/rest/v1/feed?start_date=2016-03-21&end_date=2016-03-21&detailed=true&api_key=t0TVs3DtDT2H8Oy2Zy8m2eVrNsAVKAexjcZXUckd",
    "self" : "https://api.nasa.gov/neo/rest/v1/feed?start_date=2016-03-22&end_date=2016-03-22&detailed=true&api_key=t0TVs3DtDT2H8Oy2Zy8m2eVrNsAVKAexjcZXUckd"
  },
  "element_count" : 10,
  "near_earth_objects" : {
    "2016-03-22" : [ {
      "links" : {
        "self" : "https://api.nasa.gov/neo/rest/v1/neo/3022969?api_key=t0TVs3DtDT2H8Oy2Zy8m2eVrNsAVKAexjcZXUckd"
      },
      "neo_reference_id" : "3022969",
      "name" : "(1999 SO5)",
      "nasa_jpl_url" : "http://ssd.jpl.nasa.gov/sbdb.cgi?sstr=3022969",
      "absolute_magnitude_h" : 21.0,
      "estimated_diameter" : {
        "kilometers" : {
          "estimated_diameter_min" : 0.1677084622,
          "estimated_diameter_max" : 0.3750075218
        },
        "meters" : {
          "estimated_diameter_min" : 167.7084621628,
          "estimated_diameter_max" : 375.0075217981
        },
        "miles" : {
          "estimated_diameter_min" : 0.1042091748,
          "estimated_diameter_max" : 0.2330187988
        },
        "feet" : {
          "estimated_diameter_min" : 550.2246310023,
          "estimated_diameter_max" : 1230.3396778159
        }
      },
      "is_potentially_hazardous_asteroid" : true,
      "close_approach_data" : [ {
        "close_approach_date" : "2016-03-22",
        "epoch_date_close_approach" : 1458630000000,
        "relative_velocity" : {
          "kilometers_per_second" : "14.0278763188",
          "kilometers_per_hour" : "50500.354747855",
          "miles_per_hour" : "31378.9565376324"
        },
        "miss_distance" : {
          "astronomical" : "0.3987345947",
          "lunar" : "155.1077575684",
          "kilometers" : "59649848",
          "miles" : "37064696"
        },
        "orbiting_body" : "Earth"
      } ],
      "orbital_data" : {
        "orbit_id" : "62",
        "orbit_determination_date" : "2016-11-04 06:16:30",
        "orbit_uncertainty" : "0",
        "minimum_orbit_intersection" : ".0136634",
        "jupiter_tisserand_invariant" : "5.679",
        "epoch_osculation" : "2457600.5",
        "eccentricity" : ".06514088301997566",
        "semi_major_axis" : "1.085853516099144",
        "inclination" : "13.36620068036123",
        "ascending_node_longitude" : "196.0990833097802",
        "orbital_period" : "413.2903736583539",
        "perihelion_distance" : "1.015120059230101",
        "perihelion_argument" : "359.7846865671599",
        "aphelion_distance" : "1.156586972968188",
        "perihelion_time" : "2457460.773986546697",
        "mean_anomaly" : "121.7095002671676",
        "mean_motion" : ".8710582751138395",
        "equinox" : "J2000"
      }
    }, {
      "links" : {
        "self" : "https://api.nasa.gov/neo/rest/v1/neo/3152317?api_key=t0TVs3DtDT2H8Oy2Zy8m2eVrNsAVKAexjcZXUckd"
      },
      "neo_reference_id" : "3152317",
      "name" : "(2003 GQ22)",
      "nasa_jpl_url" : "http://ssd.jpl.nasa.gov/sbdb.cgi?sstr=3152317",
      "absolute_magnitude_h" : 21.2,
      "estimated_diameter" : {
        "kilometers" : {
          "estimated_diameter_min" : 0.1529519353,
          "estimated_diameter_max" : 0.3420109247
        },
        "meters" : {
          "estimated_diameter_min" : 152.9519353442,
          "estimated_diameter_max" : 342.0109247198
        },
        "miles" : {
          "estimated_diameter_min" : 0.095039897,
          "estimated_diameter_max" : 0.2125156703
        },
        "feet" : {
          "estimated_diameter_min" : 501.8108275547,
          "estimated_diameter_max" : 1122.0831222578
        }
      },
      "is_potentially_hazardous_asteroid" : true,
      "close_approach_data" : [ {
        "close_approach_date" : "2016-03-22",
        "epoch_date_close_approach" : 1458630000000,
        "relative_velocity" : {
          "kilometers_per_second" : "11.5400364255",
          "kilometers_per_hour" : "41544.1311317478",
          "miles_per_hour" : "25813.9074801685"
        },
        "miss_distance" : {
          "astronomical" : "0.2671708275",
          "lunar" : "103.9294509888",
          "kilometers" : "39968184",
          "miles" : "24835080"
        },
        "orbiting_body" : "Earth"
      } ],
      "orbital_data" : {
        "orbit_id" : "19",
        "orbit_determination_date" : "2017-04-06 09:14:11",
        "orbit_uncertainty" : "0",
        "minimum_orbit_intersection" : ".0254945",
        "jupiter_tisserand_invariant" : "6.737",
        "epoch_osculation" : "2458000.5",
        "eccentricity" : ".182027064622519",
        "semi_major_axis" : ".8720358623638715",
        "inclination" : "17.02033806514454",
        "ascending_node_longitude" : "199.5146488823091",
        "orbital_period" : "297.4403923341348",
        "perihelion_distance" : ".713301734092209",
        "perihelion_argument" : "168.7740190179003",
        "aphelion_distance" : "1.030769990635534",
        "perihelion_time" : "2457939.320228294719",
        "mean_anomaly" : "74.04750121886342",
        "mean_motion" : "1.21032653694051",
        "equinox" : "J2000"
      }
    }, {
      "links" : {
        "self" : "https://api.nasa.gov/neo/rest/v1/neo/3351481?api_key=t0TVs3DtDT2H8Oy2Zy8m2eVrNsAVKAexjcZXUckd"
      },
      "neo_reference_id" : "3351481",
      "name" : "(2006 UX1)",
      "nasa_jpl_url" : "http://ssd.jpl.nasa.gov/sbdb.cgi?sstr=3351481",
      "absolute_magnitude_h" : 21.0,
      "estimated_diameter" : {
        "kilometers" : {
          "estimated_diameter_min" : 0.1677084622,
          "estimated_diameter_max" : 0.3750075218
        },
        "meters" : {
          "estimated_diameter_min" : 167.7084621628,
          "estimated_diameter_max" : 375.0075217981
        },
        "miles" : {
          "estimated_diameter_min" : 0.1042091748,
          "estimated_diameter_max" : 0.2330187988
        },
        "feet" : {
          "estimated_diameter_min" : 550.2246310023,
          "estimated_diameter_max" : 1230.3396778159
        }
      },
      "is_potentially_hazardous_asteroid" : false,
      "close_approach_data" : [ {
        "close_approach_date" : "2016-03-22",
        "epoch_date_close_approach" : 1458630000000,
        "relative_velocity" : {
          "kilometers_per_second" : "20.5732733032",
          "kilometers_per_hour" : "74063.7838916413",
          "miles_per_hour" : "46020.3550520035"
        },
        "miss_distance" : {
          "astronomical" : "0.4919578688",
          "lunar" : "191.3716125488",
          "kilometers" : "73595848",
          "miles" : "45730340"
        },
        "orbiting_body" : "Earth"
      } ],
      "orbital_data" : {
        "orbit_id" : "13",
        "orbit_determination_date" : "2017-04-06 09:07:51",
        "orbit_uncertainty" : "1",
        "minimum_orbit_intersection" : ".261909",
        "jupiter_tisserand_invariant" : "4.011",
        "epoch_osculation" : "2458000.5",
        "eccentricity" : ".3973759699775932",
        "semi_major_axis" : "1.721718527324035",
        "inclination" : "20.47600296124342",
        "ascending_node_longitude" : "21.01907432268458",
        "orbital_period" : "825.1666292181042",
        "perihelion_distance" : "1.037548957500253",
        "perihelion_argument" : "96.31332084633189",
        "aphelion_distance" : "2.405888097147816",
        "perihelion_time" : "2458256.659355324627",
        "mean_anomaly" : "248.2439441301118",
        "mean_motion" : ".4362755196985147",
        "equinox" : "J2000"
      }
    } ]
  }
}